NORAD_CAT_ID,OBJECT_NAME,OBJECT_TYPE,EPOCH,MEAN_MOTION,ECCENTRICITY,INCLINATION,RA_OF_ASC_NODE,ARG_OF_PERICENTER,MEAN_ANOMALY,BSTAR,MEAN_MOTION_DOT,MEAN_MOTION_DDOT,TLE_LINE0,TLE_LINE1,TLE_LINE2,SEMIMAJOR_AXIS,PERIOD,APOGEE,PERIGEE,DECAYED
51960.0,STARLINK-3691,PAYLOAD,2024-03-10 05:33:23,15.04777382,0.0001433,53.0551,68.9507,84.5358,275.5794,5.9367e-05,5.7e-06,0.0,0 STARLINK-3691,1 51960U 22025E   24070.23152077  .00000570  00000-0  59367-4 0  9998,2 51960  53.0551  68.9507 0001433  84.5358 275.5794 15.04777382112019,6930.326,95.695,553.184,551.198,0.0
51960.0,STARLINK-3691,PAYLOAD,2024-03-10 07:09:01,15.04775927,0.0001487,53.0543,68.6533,82.6749,277.4408,6.4819e-05,6.47e-06,0.0,0 STARLINK-3691,1 51960U 22025E   24070.29793830  .00000647  00000-0  64819-4 0  9995,2 51960  53.0543  68.6533 0001487  82.6749 277.4408 15.04775927110933,6930.331,95.695,553.226,551.165,0.0
51960.0,STARLINK-3691,PAYLOAD,2024-03-10 23:05:28,15.04766437,0.0001535,53.0544,65.6795,82.7202,277.3961,7.3545e-05,7.71e-06,0.0,0 STARLINK-3691,1 51960U 22025E   24070.96213080  .00000771  00000-0  73545-4 0  9997,2 51960  53.0544  65.6795 0001535  82.7202 277.3961 15.04766437111031,6930.36,95.696,553.289,551.161,0.0
51960.0,STARLINK-3691,PAYLOAD,2024-03-11 05:28:02,15.04765692,0.0001539,53.0543,64.4894,81.447,278.6693,5.1552e-05,4.58e-06,0.0,0 STARLINK-3691,1 51960U 22025E   24071.22780696  .00000458  00000-0  51552-4 0  9995,2 51960  53.0543  64.4894 0001539  81.4470 278.6693 15.04765692112167,6930.362,95.696,553.294,551.16,0.0
51960.0,STARLINK-3691,PAYLOAD,2024-03-11 07:03:41,15.04767029,0.0001543,53.0556,64.1928,83.8442,276.2722,0.00010578,1.231e-05,0.0,0 STARLINK-3691,1 51960U 22025E   24071.29422682  .00001231  00000-0  10578-3 0  9992,2 51960  53.0556  64.1928 0001543  83.8442 276.2722 15.04767029111089,6930.358,95.696,553.292,551.154,0.0
51960.0,STARLINK-3691,PAYLOAD,2024-03-12 08:33:58,15.04772263,0.0001632,53.056,59.4338,93.5681,266.5494,2.7645e-05,1.17e-06,0.0,0 STARLINK-3691,1 51960U 22025E   24072.35692617  .00000117  00000-0  27645-4 0  9993,2 51960  53.0560  59.4338 0001632  93.5681 266.5494 15.04772263112331,6930.342,95.696,553.338,551.076,0.0
51960.0,STARLINK-3691,PAYLOAD,2024-03-12 16:32:10,15.04776594,0.0001654,53.0563,57.9469,88.6482,271.4696,9.6907e-05,1.105e-05,0.0,0 STARLINK-3691,1 51960U 22025E   24072.68901536  .00001105  00000-0  96907-4 0  9997,2 51960  53.0563  57.9469 0001654  88.6482 271.4696 15.04776594111294,6930.329,95.695,553.34,551.047,0.0
51960.0,STARLINK-3691,PAYLOAD,2024-03-13 05:17:17,15.04799161,0.0001578,53.0552,55.5663,89.5253,270.5916,0.00037047,5.012e-05,0.0,0 STARLINK-3691,1 51960U 22025E   24073.22033843  .00005012  00000-0  37047-3 0  9995,2 51960  53.0552  55.5663 0001578  89.5253 270.5916 15.04799161112463,6930.259,95.694,553.218,551.031,0.0
51960.0,STARLINK-3691,PAYLOAD,2024-03-13 08:28:33,15.04803009,0.0001609,53.0555,54.9705,93.2728,266.8444,0.00038687,5.247e-05,0.0,0 STARLINK-3691,1 51960U 22025E   24073.35317055  .00005247  00000-0  38687-3 0  9990,2 51960  53.0555  54.9705 0001609  93.2728 266.8444 15.04803009111392,6930.247,95.694,553.228,550.997,0.0
51960.0,STARLINK-3691,PAYLOAD,2024-03-13 22:49:24,15.04759273,0.0001412,53.0573,52.2955,85.9676,274.1473,8.8245e-06,-1.51e-06,0.0,0 STARLINK-3691,1 51960U 22025E   24073.95097638 -.00000151  00000-0  88245-5 0  9995,2 51960  53.0573  52.2955 0001412  85.9676 274.1473 15.04759273111489,6930.382,95.696,553.225,551.268,0.0
51960.0,STARLINK-3691,PAYLOAD,2024-03-14 05:11:58,15.04757548,0.0001673,53.057,51.1054,100.4562,259.6615,-1.0106e-05,-4.21e-06,0.0,0 STARLINK-3691,1 51960U 22025E   24074.21665409 -.00000421  00000-0 -10106-4 0  9993,2 51960  53.0570  51.1054 0001673 100.4562 259.6615 15.04757548112615,6930.387,95.696,553.411,551.093,0.0
51960.0,STARLINK-3691,PAYLOAD,2024-03-14 22:44:03,15.04766452,0.0001585,53.057,47.8319,102.4113,257.7053,-0.00030823,-4.668e-05,0.0,0 STARLINK-3691,1 51960U 22025E   24074.94726193 -.00004668  00000-0 -30823-3 0  9995,2 51960  53.0570  47.8319 0001585 102.4113 257.7053 15.04766452111637,6930.36,95.696,553.323,551.126,0.0
51960.0,STARLINK-3691,PAYLOAD,2024-03-15 03:30:58,15.04769969,0.0001665,53.0568,46.9401,102.4787,257.6388,-0.00027181,-4.15e-05,0.0,0 STARLINK-3691,1 51960U 22025E   24075.14651559 -.00004150  00000-0 -27181-3 0  9990,2 51960  53.0568  46.9401 0001665 102.4787 257.6388 15.04769969112752,6930.349,95.696,553.368,551.06,0.0
51960.0,STARLINK-3691,PAYLOAD,2024-03-15 22:38:42,15.04755914,0.0001661,53.0561,43.3725,110.251,249.8657,0.00022728,2.963e-05,0.0,0 STARLINK-3691,1 51960U 22025E   24075.94354178  .00002963  00000-0  22728-3 0  9995,2 51960  53.0561  43.3725 0001661 110.2510 249.8657 15.04755914111781,6930.392,95.697,553.408,551.106,0.0
51960.0,STARLINK-3691,PAYLOAD,2024-03-16 05:01:16,15.04764599,0.00017,53.0559,42.1835,109.6667,250.4505,0.00037075,5.011e-05,0.0,0 STARLINK-3691,1 51960U 22025E   24076.20921764  .00005011  00000-0  37075-3 0  9994,2 51960  53.0559  42.1835 0001700 109.6667 250.4505 15.04764599112911,6930.365,95.696,553.409,551.052,0.0
51960.0,STARLINK-3691,PAYLOAD,2024-03-16 08:12:33,15.04767844,0.0001664,53.0554,41.5866,108.392,251.725,0.00039712,5.388e-05,0.0,0 STARLINK-3691,1 51960U 22025E   24076.34205421  .00005388  00000-0  39712-3 0  9991,2 51960  53.0554  41.5866 0001664 108.3920 251.7250 15.04767844111848,6930.355,95.696,553.374,551.067,0.0
51960.0,STARLINK-3691,PAYLOAD,2024-03-16 20:57:42,15.047624,0.000169,53.0568,39.2095,112.6791,247.4376,0.00019136,2.451e-05,0.0,0 STARLINK-3691,1 51960U 22025E   24076.87341028  .00002451  00000-0  19136-3 0  9999,2 51960  53.0568  39.2095 0001690 112.6791 247.4376 15.04762400113019,6930.372,95.696,553.408,551.066,0.0
51960.0,STARLINK-3691,PAYLOAD,2024-03-17 04:55:53,15.04811362,0.0001688,53.0559,37.7214,119.201,240.9147,0.00089132,0.00012466,0.0,0 STARLINK-3691,1 51960U 22025E   24077.20547614  .00012466  00000-0  89132-3 0  9996,2 51960  53.0559  37.7214 0001688 119.2010 240.9147 15.04811362113060,6930.222,95.693,553.257,550.917,0.0
51960.0,STARLINK-3691,PAYLOAD,2024-03-17 06:31:31,15.04815379,0.0001606,53.0555,37.4241,115.3168,244.7987,0.0010554,0.00014819,0.0,0 STARLINK-3691,1 51960U 22025E   24077.27189643  .00014819  00000-0  10554-2 0  9992,2 51960  53.0555  37.4241 0001606 115.3168 244.7987 15.04815379111989,6930.209,95.693,553.187,550.961,0.0
51960.0,STARLINK-3691,PAYLOAD,2024-03-17 20:52:20,15.04767827,0.0001869,53.0569,34.7478,115.5419,244.5763,-0.00017165,-2.723e-05,0.0,0 STARLINK-3691,1 51960U 22025E   24077.86967921 -.00002723  00000-0 -17165-3 0  9999,2 51960  53.0569  34.7478 0001869 115.5419 244.5763 15.04767827113164,6930.355,95.696,553.516,550.925,0.0
51960.0,STARLINK-3691,PAYLOAD,2024-03-18 06:26:12,15.04760573,0.0001547,53.0567,32.9633,95.5018,264.6147,-0.00024365,-3.748e-05,0.0,0 STARLINK-3691,1 51960U 22025E   24078.26819624 -.00003748  00000-0 -24365-3 0  9998,2 51960  53.0567  32.9633 0001547  95.5018 264.6147 15.04760573113227,6930.378,95.696,553.315,551.171,0.0
51960.0,STARLINK-3691,PAYLOAD,2024-03-19 03:09:33,15.04772898,0.0001484,53.056,29.0965,106.5579,253.5572,1.232e-05,-1.01e-06,0.0,0 STARLINK-3691,1 51960U 22025E   24079.13163920 -.00000101  00000-0  12320-4 0  9994,2 51960  53.0560  29.0965 0001484 106.5579 253.5572 15.04772898113356,6930.34,95.696,553.233,551.176,0.0
51960.0,STARLINK-3691,PAYLOAD,2024-03-19 06:20:50,15.04777655,0.0001514,53.0554,28.5009,102.0575,258.0583,0.00064043,8.866e-05,0.0,0 STARLINK-3691,1 51960U 22025E   24079.26447869  .00008866  00000-0  64043-3 0  9998,2 51960  53.0554  28.5009 0001514 102.0575 258.0583 15.04777655112282,6930.325,95.695,553.24,551.141,0.0
51960.0,STARLINK-3691,PAYLOAD,2024-03-19 20:41:39,15.0476371,0.0001568,53.057,25.8253,92.3536,267.7632,0.00040324,5.475e-05,0.0,0 STARLINK-3691,1 51960U 22025E   24079.86225812  .00005475  00000-0  40324-3 0  9995,2 51960  53.0570  25.8253 0001568  92.3536 267.7632 15.04763710113468,6930.368,95.696,553.32,551.146,0.0
51960.0,STARLINK-3691,PAYLOAD,2024-03-20 06:15:30,15.04775628,0.0001438,53.0565,24.0406,84.3744,275.7408,0.00095238,0.00013328,0.0,0 STARLINK-3691,1 51960U 22025E   24080.26077024  .00013328  00000-0  95238-3 0  9991,2 51960  53.0565  24.0406 0001438  84.3744 275.7408 15.04775628112438,6930.332,95.695,553.193,551.2,0.0
51960.0,STARLINK-3691,PAYLOAD,2024-03-21 02:58:51,15.04786962,0.0001385,53.0557,20.1764,94.3106,265.804,0.00097965,0.00013723,0.0,0 STARLINK-3691,1 51960U 22025E   24081.12421200  .00013723  00000-0  97965-3 0  9994,2 51960  53.0557  20.1764 0001385  94.3106 265.8040 15.04786962113657,6930.297,95.695,553.122,551.202,0.0
51960.0,STARLINK-3691,PAYLOAD,2024-03-21 12:32:43,15.04787816,0.0001325,53.0566,18.3892,88.2234,271.8906,0.00079861,0.00011131,0.0,0 STARLINK-3691,1 51960U 22025E   24081.52272101  .00011131  00000-0  79861-3 0  9998,2 51960  53.0566  18.3892 0001325  88.2234 271.8906 15.04787816112629,6930.294,95.695,553.077,551.241,0.0
51960.0,STARLINK-3691,PAYLOAD,2024-03-21 20:30:56,15.04766079,0.0001193,53.0561,16.9006,79.6396,280.4727,-0.00021798,-3.383e-05,0.0,0 STARLINK-3691,1 51960U 22025E   24081.85481644 -.00003383  00000-0 -21798-3 0  9996,2 51960  53.0561  16.9006 0001193  79.6396 280.4727 15.04766079113762,6930.361,95.696,553.053,551.399,0.0
51960.0,STARLINK-3691,PAYLOAD,2024-03-22 04:29:08,15.04791409,0.0001492,53.0564,15.4136,92.9074,267.2085,0.00061611,8.522e-05,0.0,0 STARLINK-3691,1 51960U 22025E   24082.18690264  .00008522  00000-0  61611-3 0  9999,2 51960  53.0564  15.4136 0001492  92.9074 267.2085 15.04791409113817,6930.283,95.694,553.182,551.114,0.0
51960.0,STARLINK-3691,PAYLOAD,2024-03-23 04:23:46,15.04781126,0.0002212,53.0569,10.9518,137.3388,222.7773,0.00040509,5.504e-05,0.0,0 STARLINK-3691,1 51960U 22025E   24083.18318140  .00005504  00000-0  40509-3 0  9990,2 51960  53.0569  10.9518 0002212 137.3388 222.7773 15.04781126113960,6930.315,95.695,553.713,550.647,0.0
